start=new Date('2021-10-04T00:00:00.000Z').valueOf();
sats=[{"OBJECT_TYPE":"PAYLOAD","NORAD_CAT_ID":"46345","SITE":"AFETR","CENTER_NAME":"EARTH","PERIOD":"95.592","ECCENTRICITY":"0.00017270","OBJECT_NAME":"STARLINK-1767","COUNTRY_CODE":"US","EPHEMERIS_TYPE":"0","RCS_SIZE":"LARGE","REV_AT_EPOCH":"6044","OBJECT_ID":"2020-062W","EPOCH":"2021-10-03T17:25:22.509408","ELEMENT_SET_NO":"999","REF_FRAME":"TEME","MEAN_MOTION":"15.06399683","SEMIMAJOR_AXIS":"6925.350","TLE_LINE1":"1 46345U 20062W   21276.72595497  .00001277  00000-0  10463-3 0  9992","FILE":"3143202","MEAN_ANOMALY":"268.7299","DECAY_DATE":null,"ARG_OF_PERICENTER":"91.3888","APOAPSIS":"548.411","RA_OF_ASC_NODE":"79.9340","GP_ID":"186142759","CLASSIFICATION_TYPE":"U","MEAN_MOTION_DDOT":"0.0000000000000","BSTAR":"0.00010463000000","TIME_SYSTEM":"UTC","INCLINATION":"53.0541","MEAN_ELEMENT_THEORY":"SGP4","PERIAPSIS":"546.019","MEAN_MOTION_DOT":"0.00001277","LAUNCH_DATE":"2020-09-03","TLE_LINE2":"2 46345  53.0541  79.9340 0001727  91.3888 268.7299 15.06399683 60445"},{"REV_AT_EPOCH":"6196","RCS_SIZE":"LARGE","EPHEMERIS_TYPE":"0","COUNTRY_CODE":"US","OBJECT_NAME":"STARLINK-1546","ECCENTRICITY":"0.00014700","PERIOD":"93.857","CENTER_NAME":"EARTH","SITE":"AFETR","NORAD_CAT_ID":"46346","OBJECT_TYPE":"PAYLOAD","MEAN_ANOMALY":"275.7734","TLE_LINE1":"1 46346U 20062X   21276.88541928 -.00003553  00000-0 -94527-4 0  9995","FILE":"3143202","SEMIMAJOR_AXIS":"6841.296","MEAN_MOTION":"15.34246799","REF_FRAME":"TEME","ELEMENT_SET_NO":"999","EPOCH":"2021-10-03T21:15:00.225792","OBJECT_ID":"2020-062X","GP_ID":"186143010","APOAPSIS":"464.166","RA_OF_ASC_NODE":"333.0571","ARG_OF_PERICENTER":"84.3435","DECAY_DATE":null,"LAUNCH_DATE":"2020-09-03","TLE_LINE2":"2 46346  53.0557 333.0571 0001470  84.3435 275.7734 15.34246799 61968","MEAN_MOTION_DOT":"-0.00003553","PERIAPSIS":"462.155","MEAN_ELEMENT_THEORY":"SGP4","INCLINATION":"53.0557","TIME_SYSTEM":"UTC","MEAN_MOTION_DDOT":"0.0000000000000","BSTAR":"-0.00009452700000","CLASSIFICATION_TYPE":"U"},{"INCLINATION":"53.0565","TIME_SYSTEM":"UTC","MEAN_MOTION_DDOT":"0.0000000000000","BSTAR":"-0.00008317400000","CLASSIFICATION_TYPE":"U","LAUNCH_DATE":"2020-09-03","TLE_LINE2":"2 46347  53.0565  34.8174 0001421 106.6303 253.4842 15.06393519 61067","MEAN_MOTION_DOT":"-0.00001520","PERIAPSIS":"546.249","MEAN_ELEMENT_THEORY":"SGP4","DECAY_DATE":null,"GP_ID":"186141758","APOAPSIS":"548.218","RA_OF_ASC_NODE":"34.8174","ARG_OF_PERICENTER":"106.6303","REF_FRAME":"TEME","ELEMENT_SET_NO":"999","EPOCH":"2021-10-03T18:00:32.336064","OBJECT_ID":"2020-062Y","MEAN_ANOMALY":"253.4842","TLE_LINE1":"1 46347U 20062Y   21276.75037426 -.00001520  00000-0 -83174-4 0  9993","FILE":"3143202","SEMIMAJOR_AXIS":"6925.368","MEAN_MOTION":"15.06393519","ECCENTRICITY":"0.00014210","PERIOD":"95.593","SITE":"AFETR","CENTER_NAME":"EARTH","NORAD_CAT_ID":"46347","OBJECT_TYPE":"PAYLOAD","REV_AT_EPOCH":"6106","RCS_SIZE":"LARGE","EPHEMERIS_TYPE":"0","COUNTRY_CODE":"US","OBJECT_NAME":"STARLINK-1547"},{"ECCENTRICITY":"0.00013190","CENTER_NAME":"EARTH","SITE":"AFETR","PERIOD":"95.592","OBJECT_TYPE":"PAYLOAD","NORAD_CAT_ID":"46348","REV_AT_EPOCH":"6073","RCS_SIZE":"LARGE","OBJECT_NAME":"STARLINK-1553","COUNTRY_CODE":"US","EPHEMERIS_TYPE":"0","REF_FRAME":"TEME","ELEMENT_SET_NO":"999","OBJECT_ID":"2020-062Z","EPOCH":"2021-10-03T19:03:33.800544","MEAN_ANOMALY":"262.3982","FILE":"3143202","TLE_LINE1":"1 46348U 20062Z   21276.79414121  .00000709  00000-0  66469-4 0  9993","MEAN_MOTION":"15.06399794","SEMIMAJOR_AXIS":"6925.349","DECAY_DATE":null,"GP_ID":"186142008","APOAPSIS":"548.128","RA_OF_ASC_NODE":"59.6282","ARG_OF_PERICENTER":"97.7157","TIME_SYSTEM":"UTC","INCLINATION":"53.0544","BSTAR":"0.00006646900000","MEAN_MOTION_DDOT":"0.0000000000000","CLASSIFICATION_TYPE":"U","MEAN_MOTION_DOT":"0.00000709","TLE_LINE2":"2 46348  53.0544  59.6282 0001319  97.7157 262.3982 15.06399794 60731","LAUNCH_DATE":"2020-09-03","PERIAPSIS":"546.301","MEAN_ELEMENT_THEORY":"SGP4"},{"ECCENTRICITY":"0.00009990","CENTER_NAME":"EARTH","SITE":"AFETR","PERIOD":"95.593","OBJECT_TYPE":"PAYLOAD","NORAD_CAT_ID":"46349","REV_AT_EPOCH":"6107","RCS_SIZE":"LARGE","OBJECT_NAME":"STARLINK-1575","COUNTRY_CODE":"US","EPHEMERIS_TYPE":"0","REF_FRAME":"TEME","ELEMENT_SET_NO":"999","OBJECT_ID":"2020-062AA","EPOCH":"2021-10-03T17:23:22.840224","MEAN_ANOMALY":"248.8357","FILE":"3143202","TLE_LINE1":"1 46349U 20062AA  21276.72456991  .00000500  00000-0  52481-4 0  9996","MEAN_MOTION":"15.06389764","SEMIMAJOR_AXIS":"6925.380","DECAY_DATE":null,"GP_ID":"186142273","APOAPSIS":"547.937","RA_OF_ASC_NODE":"34.8106","ARG_OF_PERICENTER":"111.2739","TIME_SYSTEM":"UTC","INCLINATION":"53.0566","BSTAR":"0.00005248100000","MEAN_MOTION_DDOT":"0.0000000000000","CLASSIFICATION_TYPE":"U","MEAN_MOTION_DOT":"0.00000500","TLE_LINE2":"2 46349  53.0566  34.8106 0000999 111.2739 248.8357 15.06389764 61076","LAUNCH_DATE":"2020-09-03","PERIAPSIS":"546.553","MEAN_ELEMENT_THEORY":"SGP4"},{"ELEMENT_SET_NO":"999","REF_FRAME":"TEME","OBJECT_ID":"2020-062AB","EPOCH":"2021-10-03T21:18:54.646272","MEAN_ANOMALY":"267.4874","MEAN_MOTION":"15.06397132","SEMIMAJOR_AXIS":"6925.357","FILE":"3143202","TLE_LINE1":"1 46350U 20062AB  21276.88813248  .00001388  00000-0  11206-3 0  9991","ECCENTRICITY":"0.00020040","OBJECT_TYPE":"PAYLOAD","NORAD_CAT_ID":"46350","CENTER_NAME":"EARTH","SITE":"AFETR","PERIOD":"95.592","RCS_SIZE":"LARGE","REV_AT_EPOCH":"6047","OBJECT_NAME":"STARLINK-1617","EPHEMERIS_TYPE":"0","COUNTRY_CODE":"US","BSTAR":"0.00011206000000","MEAN_MOTION_DDOT":"0.0000000000000","TIME_SYSTEM":"UTC","INCLINATION":"53.0542","CLASSIFICATION_TYPE":"U","MEAN_MOTION_DOT":"0.00001388","LAUNCH_DATE":"2020-09-03","TLE_LINE2":"2 46350  53.0542  79.2042 0002004  92.6344 267.4874 15.06397132 60479","MEAN_ELEMENT_THEORY":"SGP4","PERIAPSIS":"545.835","DECAY_DATE":null,"GP_ID":"186142524","ARG_OF_PERICENTER":"92.6344","APOAPSIS":"548.610","RA_OF_ASC_NODE":"79.2042"},{"ECCENTRICITY":"0.00016310","NORAD_CAT_ID":"46351","OBJECT_TYPE":"PAYLOAD","PERIOD":"95.592","CENTER_NAME":"EARTH","SITE":"AFETR","RCS_SIZE":"LARGE","REV_AT_EPOCH":"6074","COUNTRY_CODE":"US","EPHEMERIS_TYPE":"0","OBJECT_NAME":"STARLINK-1646","ELEMENT_SET_NO":"999","REF_FRAME":"TEME","EPOCH":"2021-10-03T19:51:20.590560","OBJECT_ID":"2020-062AC","MEAN_ANOMALY":"256.9194","SEMIMAJOR_AXIS":"6925.347","MEAN_MOTION":"15.06400444","FILE":"3143202","TLE_LINE1":"1 46351U 20062AC  21276.82732165  .00002081  00000-0  15855-3 0  9999","DECAY_DATE":null,"GP_ID":"186141272","ARG_OF_PERICENTER":"103.1977","RA_OF_ASC_NODE":"59.4886","APOAPSIS":"548.342","BSTAR":"0.00015855000000","MEAN_MOTION_DDOT":"0.0000000000000","INCLINATION":"53.0543","TIME_SYSTEM":"UTC","CLASSIFICATION_TYPE":"U","LAUNCH_DATE":"2020-09-03","TLE_LINE2":"2 46351  53.0543  59.4886 0001631 103.1977 256.9194 15.06400444 60741","MEAN_MOTION_DOT":"0.00002081","MEAN_ELEMENT_THEORY":"SGP4","PERIAPSIS":"546.083"},{"GP_ID":"186141522","ARG_OF_PERICENTER":"93.5773","RA_OF_ASC_NODE":"59.5633","APOAPSIS":"548.364","DECAY_DATE":null,"MEAN_MOTION_DOT":"0.00000129","TLE_LINE2":"2 46352  53.0549  59.5633 0001659  93.5773 266.5406 15.06399503 60741","LAUNCH_DATE":"2020-09-03","MEAN_ELEMENT_THEORY":"SGP4","PERIAPSIS":"546.066","BSTAR":"0.00002753300000","MEAN_MOTION_DDOT":"0.0000000000000","TIME_SYSTEM":"UTC","INCLINATION":"53.0549","CLASSIFICATION_TYPE":"U","RCS_SIZE":"LARGE","REV_AT_EPOCH":"6074","OBJECT_NAME":"STARLINK-1653","EPHEMERIS_TYPE":"0","COUNTRY_CODE":"US","ECCENTRICITY":"0.00016590","OBJECT_TYPE":"PAYLOAD","NORAD_CAT_ID":"46352","CENTER_NAME":"EARTH","SITE":"AFETR","PERIOD":"95.592","MEAN_ANOMALY":"266.5406","MEAN_MOTION":"15.06399503","SEMIMAJOR_AXIS":"6925.350","TLE_LINE1":"1 46352U 20062AD  21276.80888566  .00000129  00000-0  27533-4 0  9993","FILE":"3143202","ELEMENT_SET_NO":"999","REF_FRAME":"TEME","OBJECT_ID":"2020-062AD","EPOCH":"2021-10-03T19:24:47.721024"},{"ECCENTRICITY":"0.00020580","NORAD_CAT_ID":"46353","OBJECT_TYPE":"PAYLOAD","PERIOD":"95.593","CENTER_NAME":"EARTH","SITE":"AFETR","RCS_SIZE":"LARGE","REV_AT_EPOCH":"6046","EPHEMERIS_TYPE":"0","COUNTRY_CODE":"US","OBJECT_NAME":"STARLINK-1656","ELEMENT_SET_NO":"999","REF_FRAME":"TEME","EPOCH":"2021-10-03T20:57:41.617440","OBJECT_ID":"2020-062AE","MEAN_ANOMALY":"263.7809","SEMIMAJOR_AXIS":"6925.370","MEAN_MOTION":"15.06392863","TLE_LINE1":"1 46353U 20062AE  21276.87339835 -.00002297  00000-0 -13537-3 0  9999","FILE":"3143202","DECAY_DATE":null,"GP_ID":"186142760","ARG_OF_PERICENTER":"96.3414","APOAPSIS":"548.661","RA_OF_ASC_NODE":"79.2794","MEAN_MOTION_DDOT":"0.0000000000000","BSTAR":"-0.00013537000000","INCLINATION":"53.0550","TIME_SYSTEM":"UTC","CLASSIFICATION_TYPE":"U","TLE_LINE2":"2 46353  53.0550  79.2794 0002058  96.3414 263.7809 15.06392863 60465","LAUNCH_DATE":"2020-09-03","MEAN_MOTION_DOT":"-0.00002297","MEAN_ELEMENT_THEORY":"SGP4","PERIAPSIS":"545.810"},{"GP_ID":"186143011","APOAPSIS":"548.497","RA_OF_ASC_NODE":"79.3232","ARG_OF_PERICENTER":"101.1355","DECAY_DATE":null,"TLE_LINE2":"2 46354  53.0545  79.3232 0001852 101.1355 258.9842 15.06399676 60460","LAUNCH_DATE":"2020-09-03","MEAN_MOTION_DOT":"-0.00000421","PERIAPSIS":"545.932","MEAN_ELEMENT_THEORY":"SGP4","INCLINATION":"53.0545","TIME_SYSTEM":"UTC","BSTAR":"-0.00000934630000","MEAN_MOTION_DDOT":"0.0000000000000","CLASSIFICATION_TYPE":"U","REV_AT_EPOCH":"6046","RCS_SIZE":"LARGE","COUNTRY_CODE":"US","EPHEMERIS_TYPE":"0","OBJECT_NAME":"STARLINK-1657","ECCENTRICITY":"0.00018520","PERIOD":"95.592","SITE":"AFETR","CENTER_NAME":"EARTH","NORAD_CAT_ID":"46354","OBJECT_TYPE":"PAYLOAD","MEAN_ANOMALY":"258.9842","TLE_LINE1":"1 46354U 20062AF  21276.86233349 -.00000421  00000-0 -93463-5 0  9997","FILE":"3143202","SEMIMAJOR_AXIS":"6925.350","MEAN_MOTION":"15.06399676","REF_FRAME":"TEME","ELEMENT_SET_NO":"999","EPOCH":"2021-10-03T20:41:45.613536","OBJECT_ID":"2020-062AF"}];
